NORAD_CAT_ID,OBJECT_NAME,OBJECT_TYPE,EPOCH,MEAN_MOTION,ECCENTRICITY,INCLINATION,RA_OF_ASC_NODE,ARG_OF_PERICENTER,MEAN_ANOMALY,BSTAR,MEAN_MOTION_DOT,MEAN_MOTION_DDOT,TLE_LINE0,TLE_LINE1,TLE_LINE2,SEMIMAJOR_AXIS,PERIOD,APOGEE,PERIGEE,DECAYED
53013.0,STARLINK-4177,PAYLOAD,2022-08-25 14:00:01,15.73209617,0.0001653,53.2169,136.909,42.477,112.2701,-0.00011254,-0.00016391,0.0,0 STARLINK-4177,1 53013U 22076AD  22237.58334491 -.00016391  00000-0 -11254-3 0  9990,2 53013  53.2169 136.9090 0001653  42.4770 112.2701 15.73209617  1306,6727.868,91.533,350.845,348.621,0.0
53013.0,STARLINK-4177,PAYLOAD,2022-08-25 22:00:00,15.73188844,0.0001876999999999,53.2173,135.261,45.0205,198.6629,-1.1647e-05,-2.254e-05,0.0,0 STARLINK-4177,1 53013U 22076AD  22237.91667824 -.00002254  00000-0 -11647-4 0  9996,2 53013  53.2173 135.2610 0001877  45.0205 198.6629 15.73188844  1306,6727.927,91.534,351.055,348.529,0.0
53013.0,STARLINK-4177,PAYLOAD,2022-08-26 14:00:01,15.73179786,0.0001795,53.2175,131.9608,46.4786,15.1031,0.0005033,0.0007055,0.0,0 STARLINK-4177,1 53013U 22076AD  22238.58335648  .00070550  00000-0  50330-3 0  9999,2 53013  53.2175 131.9608 0001795  46.4786  15.1031 15.73179786  1301,6727.953,91.534,351.025,348.61,0.0
53013.0,STARLINK-4177,PAYLOAD,2022-08-26 22:00:00,15.73243254,0.0001913,53.2172,130.3129,43.9991,106.4561,-6.905899999999999e-05,-0.0001032,0.0,0 STARLINK-4177,1 53013U 22076AD  22238.91667824 -.00010320  00000-0 -69059-4 0  9990,2 53013  53.2172 130.3129 0001913  43.9991 106.4561 15.73243254  1305,6727.772,91.531,350.9240000000001,348.35,0.0
53013.0,STARLINK-4177,PAYLOAD,2022-08-27 14:00:01,15.73167023,0.0001425,53.2166,127.0123,38.1925,290.2088,0.00018401,0.00025246,0.0,0 STARLINK-4177,1 53013U 22076AD  22239.58334491  .00025246  00000-0  18401-3 0  9990,2 53013  53.2166 127.0123 0001425  38.1925 290.2088 15.73167023  1301,6727.989000000001,91.535,350.81300000000016,348.895,0.0
53013.0,STARLINK-4177,PAYLOAD,2022-08-27 22:00:00,15.73184345,0.0001548,53.2168,125.3647,32.7122,24.5735,1.5326e-05,1.53e-05,0.0,0 STARLINK-4177,1 53013U 22076AD  22239.91667824  .00001530  00000-0  15326-4 0  9990,2 53013  53.2168 125.3647 0001548  32.7122  24.5735 15.73184345  1303,6727.94,91.534,350.846,348.76300000000015,0.0
53013.0,STARLINK-4177,PAYLOAD,2022-08-28 06:00:00,15.73226066,0.0001648,53.2168,123.7154,31.4385,114.7578,-9.3467e-05,-0.00013732,0.0,0 STARLINK-4177,1 53013U 22076AD  22240.25001157 -.00013732  00000-0 -93467-4 0  9991,2 53013  53.2168 123.7154 0001648  31.4385 114.7578 15.73226066  8633,6727.821,91.532,350.795,348.577,0.0
53013.0,STARLINK-4177,PAYLOAD,2022-08-28 14:00:01,15.73187142,0.0001561999999999,53.2169,122.0638,40.2872,194.8847,0.00025359,0.00035099,0.0,0 STARLINK-4177,1 53013U 22076AD  22240.58334491  .00035099  00000-0  25359-3 0  9999,2 53013  53.2169 122.0638 0001562  40.2872 194.8847 15.73187142  1303,6727.932,91.534,350.848,348.746,0.0
53013.0,STARLINK-4177,PAYLOAD,2022-08-28 22:00:00,15.73201336,0.0001776,53.2166,120.4161,39.0612,285.0117,7.651e-06,4.53e-06,0.0,0 STARLINK-4177,1 53013U 22076AD  22240.91667824  .00000453  00000-0  76510-5 0  9998,2 53013  53.2166 120.4161 0001776  39.0612 285.0117 15.73201336  1303,6727.891,91.533,350.951,348.561,0.0
53013.0,STARLINK-4177,PAYLOAD,2022-08-29 06:00:02,15.73216714,0.000169,53.216,118.7665,33.3726,19.6891,-0.00054692,-0.00076739,0.0,0 STARLINK-4177,1 53013U 22076AD  22241.25002315 -.00076739  00000-0 -54692-3 0  9991,2 53013  53.2160 118.7665 0001690  33.3726  19.6891 15.73216714  8790,6727.848000000001,91.532,350.85,348.576,0.0
53013.0,STARLINK-4177,PAYLOAD,2022-08-29 14:00:01,15.73151633,0.0001383,53.2161,117.1154,38.0146,103.9022,0.0005288,0.00074096,0.0,0 STARLINK-4177,1 53013U 22076AD  22241.58334491  .00074096  00000-0  52880-3 0  9999,2 53013  53.2161 117.1154 0001383  38.0146 103.9022 15.73151633  1305,6728.033,91.536,350.829,348.968,0.0
53013.0,STARLINK-4177,PAYLOAD,2022-08-29 16:00:00,15.73173053,0.0001389,53.2163,116.7032,38.8418,215.2874,0.00033125,0.0004607,0.0,0 STARLINK-4177,1 53013U 22076AD  22241.66667824  .00046070  00000-0  33125-3 0  9999,2 53013  53.2163 116.7032 0001389  38.8418 215.2874 15.73173053  8863,6727.972,91.535,350.772,348.902,0.0
53013.0,STARLINK-4177,PAYLOAD,2022-08-29 22:00:00,15.73195805,0.0001595999999999,53.2162,115.4678,33.6722,197.1415,0.00010284,0.00013834,0.0,0 STARLINK-4177,1 53013U 22076AD  22241.91667824  .00013834  00000-0  10284-3 0  9990,2 53013  53.2162 115.4678 0001596  33.6722 197.1415 15.73195805  1305,6727.906999999997,91.533,350.846,348.6980000000001,0.0
53013.0,STARLINK-4177,PAYLOAD,2022-08-30 14:00:01,15.73192027,0.0001556,53.2165,112.1665,42.1314,6.597,0.00028031,0.00038889,0.0,0 STARLINK-4177,1 53013U 22076AD  22242.58334491  .00038889  00000-0  28031-3 0  9991,2 53013  53.2165 112.1665 0001556  42.1314   6.5970 15.73192027  9003,6727.918000000002,91.534,350.83,348.736,0.0
53013.0,STARLINK-4177,PAYLOAD,2022-08-30 22:00:00,15.7320888,0.0001726,53.2162,110.5188,35.3383,102.3297,-0.00038261,-0.00053997,0.0,0 STARLINK-4177,1 53013U 22076AD  22242.91667824 -.00053997  00000-0 -38261-3 0  9992,2 53013  53.2162 110.5188 0001726  35.3383 102.3297 15.73208880  9058,6727.87,91.533,350.896,348.574,0.0
53013.0,STARLINK-4177,PAYLOAD,2022-08-31 14:00:01,15.732187699999995,0.0001499,53.216,107.2179,42.4438,273.0573,-0.00027162,-0.00038597,0.0,0 STARLINK-4177,1 53013U 22076AD  22243.58334491 -.00038597  00000-0 -27162-3 0  9994,2 53013  53.2160 107.2179 0001499  42.4438 273.0573 15.73218770  1308,6727.842,91.532,350.715,348.6980000000001,0.0
53013.0,STARLINK-4177,PAYLOAD,2022-08-31 22:00:00,15.73169481,0.0001785,53.2162,105.5705,41.3442,3.0965,0.00015389,0.00021003,0.0,0 STARLINK-4177,1 53013U 22076AD  22243.91667824  .00021003  00000-0  15389-3 0  9990,2 53013  53.2162 105.5705 0001785  41.3442   3.0965 15.73169481  1307,6727.982,91.535,351.048,348.646,0.0
53013.0,STARLINK-4177,PAYLOAD,2022-09-01 14:00:01,15.73230324,0.000176,53.2167,102.2691,49.1027,173.2379,-0.00029806,-0.00042298,0.0,0 STARLINK-4177,1 53013U 22076AD  22244.58335648 -.00042298  00000-0 -29806-3 0  9990,2 53013  53.2167 102.2691 0001760  49.1027 173.2379 15.73230324  1302,6727.809,91.531,350.858,348.49,0.0
53013.0,STARLINK-4177,PAYLOAD,2022-09-01 22:00:00,15.73182701,0.000208,53.2166,100.6218,46.8067,264.4182,0.00022519,0.00031078,0.0,0 STARLINK-4177,1 53013U 22076AD  22244.91667824  .00031078  00000-0  22519-3 0  9997,2 53013  53.2166 100.6218 0002080  46.8067 264.4182 15.73182701  1302,6727.944,91.534,351.209,348.41,0.0
53013.0,STARLINK-4177,PAYLOAD,2022-09-02 06:00:00,15.7322866,0.0001924,53.2162,98.9715,45.6196,354.5161,-5.4108e-05,-8.217e-05,0.0,0 STARLINK-4177,1 53013U 22076AD  22245.25001157 -.00008217  00000-0 -54108-4 0  9997,2 53013  53.2162  98.9715 0001924  45.6196 354.5161 15.73228660  9429,6727.813,91.532,350.973,348.384,0.0
53013.0,STARLINK-4177,PAYLOAD,2022-09-02 14:00:01,15.73214905,0.0001666999999999,53.2166,97.3209,49.3519,79.7384,-0.00018071,-0.00025921,0.0,0 STARLINK-4177,1 53013U 22076AD  22245.58334491 -.00025921  00000-0 -18071-3 0  9992,2 53013  53.2166  97.3209 0001667  49.3519  79.7384 15.73214905  1307,6727.853,91.532,350.839,348.596,0.0
53013.0,STARLINK-4177,PAYLOAD,2022-09-02 22:00:01,15.73208727,0.0001748,53.2168,95.6735,38.2378,179.8513,-0.00052317,-0.00073437,0.0,0 STARLINK-4177,1 53013U 22076AD  22245.91668981 -.00073437  00000-0 -52317-3 0  9999,2 53013  53.2168  95.6735 0001748  38.2378 179.8513 15.73208727  1305,6727.87,91.533,350.911,348.559,0.0
53013.0,STARLINK-4177,PAYLOAD,2022-09-03 00:00:00,15.73180964,0.0001721999999999,53.2169,95.2614,35.8012,294.4657,-0.00016293,-0.00023405,0.0,0 STARLINK-4177,1 53013U 22076AD  22246.00001157 -.00023405  00000-0 -16293-3 0  9999,2 53013  53.2169  95.2614 0001722  35.8012 294.4657 15.73180964  9547,6727.949000000001,91.534,350.973,348.656,0.0
53013.0,STARLINK-4177,PAYLOAD,2022-09-03 14:00:01,15.73181648,0.0001533,53.2175,92.3726,38.8489,356.9876,0.00034769,0.00048419,0.0,0 STARLINK-4177,1 53013U 22076AD  22246.58334491  .00048419  00000-0  34769-3 0  9990,2 53013  53.2175  92.3726 0001533  38.8489 356.9876 15.73181648  9634,6727.946999999999,91.534,350.844,348.781,0.0
53013.0,STARLINK-4177,PAYLOAD,2022-09-03 22:00:00,15.73221271,0.0001766999999999,53.2173,90.7252,33.3288,91.465,0.00044127,0.00061824,0.0,0 STARLINK-4177,1 53013U 22076AD  22246.91667824  .00061824  00000-0  44127-3 0  9990,2 53013  53.2173  90.7252 0001767  33.3288  91.4650 15.73221271  9687,6727.835,91.532,350.88800000000015,348.511,0.0
53013.0,STARLINK-4177,PAYLOAD,2022-09-04 14:00:01,15.73556891,0.0001344,53.217,87.4102,42.8233,259.978,-0.006927,-0.0088927,0.0,0 STARLINK-4177,1 53013U 22076AD  22247.58335648 -.00889270  00000-0 -69270-2 0  9990,2 53013  53.2170  87.4102 0001344  42.8233 259.9780 15.73556891  1302,6726.878000000002,91.512,349.647,347.839,0.0
53013.0,STARLINK-4177,PAYLOAD,2022-09-04 16:00:00,15.73415787,0.0001530999999999,53.2169,86.9957,37.0884,17.9424,-0.0067604,-0.00865205,0.0,0 STARLINK-4177,1 53013U 22076AD  22247.66667824 -.00865205  00000-0 -67604-2 0  9994,2 53013  53.2169  86.9957 0001531  37.0884  17.9424 15.73415787  9806,6727.28,91.521,350.175,348.115,0.0
53013.0,STARLINK-4177,PAYLOAD,2022-09-04 20:00:01,15.72877134,0.0001701,53.2171,86.1663,35.7119,243.8713,-0.0021104,-0.00283132,0.0,0 STARLINK-4177,1 53013U 22076AD  22247.83334491 -.00283132  00000-0 -21104-2 0  9992,2 53013  53.2171  86.1663 0001701  35.7119 243.8713 15.72877134  1305,6728.816,91.552,351.825,349.536,0.0
53013.0,STARLINK-4177,PAYLOAD,2022-09-05 06:00:00,15.72555715,0.000152,53.2174,84.0965,39.3178,80.7761,-0.00859,-0.01055197,0.0,0 STARLINK-4177,1 53013U 22076AD  22248.25001157 -.01055197  00000-0 -85900-2 0  9992,2 53013  53.2174  84.0965 0001520  39.3178  80.7761 15.72555715  9895,6729.733,91.571,352.621,350.575,0.0
